NORAD_CAT_ID,OBJECT_NAME,OBJECT_TYPE,EPOCH,MEAN_MOTION,ECCENTRICITY,INCLINATION,RA_OF_ASC_NODE,ARG_OF_PERICENTER,MEAN_ANOMALY,BSTAR,MEAN_MOTION_DOT,MEAN_MOTION_DDOT,TLE_LINE0,TLE_LINE1,TLE_LINE2,SEMIMAJOR_AXIS,PERIOD,APOGEE,PERIGEE,DECAYED
56488.0,STARLINK-6204,PAYLOAD,2024-05-16 06:25:00,14.98347589,0.000212,70.0007,334.8325,285.9464,74.1462,1.6548e-05,1.05e-06,0.0,0 STARLINK-6204,1 56488U 23064AS  24137.26736187  .00000105  00000-0  16548-4 0  9997,2 56488  70.0007 334.8325 0002120 285.9464  74.1462 14.98347589 57361,6950.138,96.106,573.477,570.53,0.0
56488.0,STARLINK-6204,PAYLOAD,2024-05-16 19:14:04,14.98349609,0.0002192,70.0,333.4902,271.5422,88.5486,-0.00011043,-1.411e-05,0.0,0 STARLINK-6204,1 56488U 23064AS  24137.80143600 -.00001411  00000-0 -11043-3 0  9996,2 56488  70.0000 333.4902 0002192 271.5422  88.5486 14.98349609 57083,6950.132,96.106,573.521,570.474,0.0
56488.0,STARLINK-6204,PAYLOAD,2024-05-17 00:02:28,14.98338717,0.0002715,69.9998,332.9852,270.7699,89.3149,-0.00020841,-2.579e-05,0.0,0 STARLINK-6204,1 56488U 23064AS  24138.00172328 -.00002579  00000-0 -20841-3 0  9990,2 56488  69.9998 332.9852 0002715 270.7699  89.3149 14.98338717 57478,6950.166,96.106,573.918,570.144,0.0
56488.0,STARLINK-6204,PAYLOAD,2024-05-17 12:51:33,14.98329306,0.0002686,69.9996,331.6383,271.1941,88.891,-0.00024289,-2.99e-05,0.0,0 STARLINK-6204,1 56488U 23064AS  24138.53580822 -.00002990  00000-0 -24289-3 0  9997,2 56488  69.9996 331.6383 0002686 271.1941  88.8910 14.98329306 57556,6950.195,96.107,573.927,570.193,0.0
56488.0,STARLINK-6204,PAYLOAD,2024-05-17 19:16:05,14.98338586,0.00027,69.9988,330.9627,266.7871,93.2979,-0.00015868,-1.986e-05,0.0,0 STARLINK-6204,1 56488U 23064AS  24138.80283868 -.00001986  00000-0 -15868-3 0  9994,2 56488  69.9988 330.9627 0002700 266.7871  93.2979 14.98338586 57598,6950.166,96.106,573.908,570.155,0.0
56488.0,STARLINK-6204,PAYLOAD,2024-05-17 22:28:21,14.9834013,0.000239,70.0005,330.6292,260.624,99.4649,-7.3068e-05,-9.65e-06,0.0,0 STARLINK-6204,1 56488U 23064AS  24138.93635526 -.00000965  00000-0 -73068-4 0  9993,2 56488  70.0005 330.6292 0002390 260.6240  99.4649 14.98340130 57257,6950.162,96.106,573.688,570.365,0.0
56488.0,STARLINK-6204,PAYLOAD,2024-05-18 12:53:32,14.98363075,0.0002815,69.9975,329.1109,276.5149,83.569,-0.00033652,-4.109e-05,0.0,0 STARLINK-6204,1 56488U 23064AS  24139.53718332 -.00004109  00000-0 -33652-3 0  9995,2 56488  69.9975 329.1109 0002815 276.5149  83.5690 14.98363075 57709,6950.091,96.105,573.912,569.999,0.0
56488.0,STARLINK-6204,PAYLOAD,2024-05-18 14:29:40,14.98377571,0.0002728,69.9989,328.9428,279.0091,81.0759,-0.00056446,-6.83e-05,0.0,0 STARLINK-6204,1 56488U 23064AS  24139.60393913 -.00006830  00000-0 -56446-3 0  9996,2 56488  69.9989 328.9428 0002728 279.0091  81.0759 14.98377571 57358,6950.046,96.104,573.807,570.015,0.0
56488.0,STARLINK-6204,PAYLOAD,2024-05-18 20:54:12,14.98337122,0.0002661,69.999,328.2692,273.3381,86.7473,0.000257,2.975e-05,0.0,0 STARLINK-6204,1 56488U 23064AS  24139.87098154  .00002975  00000-0  25700-3 0  9997,2 56488  69.9990 328.2692 0002661 273.3381  86.7473 14.98337122 57758,6950.171,96.107,573.885,570.186,0.0
56488.0,STARLINK-6204,PAYLOAD,2024-05-18 22:30:20,14.98338725,0.0002642,69.999,328.1008,273.2891,86.7966,0.00027227,3.158e-05,0.0,0 STARLINK-6204,1 56488U 23064AS  24139.93773977  .00003158  00000-0  27227-3 0  9997,2 56488  69.9990 328.1008 0002642 273.2891  86.7966 14.98338725 57401,6950.166,96.106,573.867,570.195,0.0
56488.0,STARLINK-6204,PAYLOAD,2024-05-19 14:31:43,14.98324023,0.0002577,69.9988,326.4173,265.7551,94.3314,-9.4148e-05,-1.216e-05,0.0,0 STARLINK-6204,1 56488U 23064AS  24140.60536068 -.00001216  00000-0 -94148-4 0  9993,2 56488  69.9988 326.4173 0002577 265.7551  94.3314 14.98324023 57507,6950.211,96.107,573.867,570.285,0.0
56488.0,STARLINK-6204,PAYLOAD,2024-05-20 12:57:35,14.98336853,0.0003004,69.9984,324.0612,269.6331,90.4483,-6.1428e-05,-8.26e-06,0.0,0 STARLINK-6204,1 56488U 23064AS  24141.53999210 -.00000826  00000-0 -61428-4 0  9999,2 56488  69.9984 324.0612 0003004 269.6331  90.4483 14.98336853 58004,6950.172,96.107,574.125,569.949,0.0
56488.0,STARLINK-6204,PAYLOAD,2024-05-20 14:33:43,14.98338685,0.0002963,69.9986,323.8928,269.0931,90.9889,-4.3107e-05,-6.07e-06,0.0,0 STARLINK-6204,1 56488U 23064AS  24141.60675016 -.00000607  00000-0 -43107-4 0  9993,2 56488  69.9986 323.8928 0002963 269.0931  90.9889 14.98338685 57656,6950.166,96.106,574.09,569.972,0.0
56488.0,STARLINK-6204,PAYLOAD,2024-05-20 20:58:14,14.98346705,0.0002895,69.9986,323.2199,266.1658,93.917,9.7434e-06,2.3e-07,0.0,0 STARLINK-6204,1 56488U 23064AS  24141.87378164  .00000023  00000-0  97434-5 0  9999,2 56488  69.9986 323.2199 0002895 266.1658  93.9170 14.98346705 58051,6950.141,96.106,574.018,569.994,0.0
56488.0,STARLINK-6204,PAYLOAD,2024-05-21 12:59:36,14.98322496,0.000214,70.0011,321.5388,241.9068,118.1875,0.00014018,1.58e-05,0.0,0 STARLINK-6204,1 56488U 23064AS  24142.54139191  .00001580  00000-0  14018-3 0  9993,2 56488  70.0011 321.5388 0002140 241.9068 118.1875 14.98322496 58157,6950.216,96.107,573.568,570.594,0.0
56488.0,STARLINK-6204,PAYLOAD,2024-05-21 14:35:44,14.98322165,0.0002244,70.001,321.3705,237.6206,122.4736,0.00012153,1.357e-05,0.0,0 STARLINK-6204,1 56488U 23064AS  24142.60815251  .00001357  00000-0  12153-3 0  9998,2 56488  70.0010 321.3705 0002244 237.6206 122.4736 14.98322165 57806,6950.217,96.108,573.642,570.522,0.0
56488.0,STARLINK-6204,PAYLOAD,2024-05-21 21:00:17,14.98312907,0.0002367,70.0008,320.6966,235.7093,124.3843,0.00012346,1.38e-05,0.0,0 STARLINK-6204,1 56488U 23064AS  24142.87519986  .00001380  00000-0  12346-3 0  9993,2 56488  70.0008 320.6966 0002367 235.7093 124.3843 14.98312907 58201,6950.246,96.108,573.756,570.466,0.0
56488.0,STARLINK-6204,PAYLOAD,2024-05-22 11:25:29,14.98333119,0.0002784,69.9995,319.1802,260.6856,99.3988,-6.7187e-05,-8.95e-06,0.0,0 STARLINK-6204,1 56488U 23064AS  24143.47603297 -.00000895  00000-0 -67187-4 0  9995,2 56488  69.9995 319.1802 0002784 260.6856  99.3988 14.98333119 58290,6950.183,96.107,573.983,570.113,0.0
56488.0,STARLINK-6204,PAYLOAD,2024-05-22 21:02:17,14.9833258,0.0002673,70.0,318.171,259.5343,100.5515,-4.3981e-05,-6.18e-06,0.0,0 STARLINK-6204,1 56488U 23064AS  24143.87659187 -.00000618  00000-0 -43981-4 0  9997,2 56488  70.0000 318.1710 0002673 259.5343 100.5515 14.98332580 57990,6950.185,96.107,573.908,570.192,0.0
56488.0,STARLINK-6204,PAYLOAD,2024-05-23 13:03:37,14.98331318,0.0002928,69.9995,316.4873,260.9957,99.0871,4.5287e-05,4.47e-06,0.0,0 STARLINK-6204,1 56488U 23064AS  24144.54418857  .00000447  00000-0  45287-4 0  9998,2 56488  69.9995 316.4873 0002928 260.9957  99.0871 14.98331318 58458,6950.189,96.107,574.089,570.019,0.0
56488.0,STARLINK-6204,PAYLOAD,2024-05-23 14:39:45,14.98331466,0.000293,69.9995,316.3188,261.0202,99.0626,4.6574e-05,4.63e-06,0.0,0 STARLINK-6204,1 56488U 23064AS  24144.61094835  .00000463  00000-0  46574-4 0  9990,2 56488  69.9995 316.3188 0002930 261.0202  99.0626 14.98331466 58108,6950.188,96.107,574.09,570.017,0.0
56488.0,STARLINK-6204,PAYLOAD,2024-05-23 17:52:00,14.98345018,0.0002803,69.9999,315.983,248.5482,111.5379,0.0001993,2.287e-05,0.0,0 STARLINK-6204,1 56488U 23064AS  24144.74445551  .00002287  00000-0  19930-3 0  9990,2 56488  69.9999 315.9830 0002803 248.5482 111.5379 14.98345018 58484,6950.146,96.106,573.96,570.063,0.0
56488.0,STARLINK-6204,PAYLOAD,2024-05-23 21:04:09,14.98432777,0.0003355,69.9996,315.6451,263.9371,96.1406,0.0011501,0.00013693,0.0,0 STARLINK-6204,1 56488U 23064AS  24144.87789241  .00013693  00000-0  11501-2 0  9999,2 56488  69.9996 315.6451 0003355 263.9371  96.1406 14.98432777 58149,6949.875,96.1,574.072,569.408,0.0
56488.0,STARLINK-6204,PAYLOAD,2024-05-24 11:29:00,14.986242,0.0003264,70.0001,314.1303,282.6671,77.4123,0.002845,0.0003428,0.0,0 STARLINK-6204,1 56488U 23064AS  24145.47848340  .00034280  00000-0  28450-2 0  9998,2 56488  70.0001 314.1303 0003264 282.6671  77.4123 14.98624200 58590,6949.283,96.088,573.416,568.88,0.0
56488.0,STARLINK-6204,PAYLOAD,2024-05-24 14:41:04,14.98760598,0.0003168,69.9997,313.7916,270.6373,89.4423,0.0042189,0.00051184,0.0,0 STARLINK-6204,1 56488U 23064AS  24145.61185625  .00051184  00000-0  42189-2 0  9991,2 56488  69.9997 313.7916 0003168 270.6373  89.4423 14.98760598 58255,6948.862,96.079,572.928,568.525,0.0
56488.0,STARLINK-6204,PAYLOAD,2024-05-24 21:05:28,14.98795466,0.0003024,69.9992,313.1183,266.3963,93.6851,0.0042749,0.00051916,0.0,0 STARLINK-6204,1 56488U 23064AS  24145.87879835  .00051916  00000-0  42749-2 0  9997,2 56488  69.9992 313.1183 0003024 266.3963  93.6851 14.98795466 58656,6948.754,96.077,572.72,568.518,0.0
56488.0,STARLINK-6204,PAYLOAD,2024-05-25 13:06:27,14.98854364,0.0003358,69.9984,311.4328,273.8378,86.2397,0.0039629,0.00048169,0.0,0 STARLINK-6204,1 56488U 23064AS  24146.54615586  .00048169  00000-0  39629-2 0  9992,2 56488  69.9984 311.4328 0003358 273.8378  86.2397 14.98854364 58759,6948.572,96.073,572.77,568.103,0.0
56488.0,STARLINK-6204,PAYLOAD,2024-05-25 14:42:33,14.9885983,0.0003272,69.9985,311.2641,273.1065,86.972,0.003936,0.00047846,0.0,0 STARLINK-6204,1 56488U 23064AS  24146.61288942  .00047846  00000-0  39360-2 0  9995,2 56488  69.9985 311.2641 0003272 273.1065  86.9720 14.98859830 58409,6948.555,96.073,572.693,568.146,0.0
56488.0,STARLINK-6204,PAYLOAD,2024-05-25 21:06:56,14.98885287,0.0003102,69.9987,310.5902,269.5451,90.5353,0.0038477,0.00046794,0.0,0 STARLINK-6204,1 56488U 23064AS  24146.87981559  .00046794  00000-0  38477-2 0  9996,2 56488  69.9987 310.5902 0003102 269.5451  90.5353 14.98885287 58805,6948.476,96.071,572.497,568.186,0.0
56488.0,STARLINK-6204,PAYLOAD,2024-05-26 13:07:45,14.99135256,0.0003331,69.9986,308.9059,271.4612,88.6166,0.00014534,1.677e-05,0.0,0 STARLINK-6204,1 56488U 23064AS  24147.54705890  .00001677  00000-0  14534-3 0  9993,2 56488  69.9986 308.9059 0003331 271.4612  88.6166 14.99135256 58909,6947.704,96.055,571.883,567.255,0.0
